CCSDS_OMM_VERS = 2.0
CREATION_DATE  = 
ORIGINATOR     = 

OBJECT_NAME    = COSMOS 1933
OBJECT_ID      = 1988-020A
CENTER_NAME    = EARTH
REF_FRAME      = TEME
TIME_SYSTEM    = UTC
MEAN_ELEMENT_THEORY = SGP/SGP4

EPOCH          = 2026-01-20T03:14:14.876160
MEAN_MOTION    = 15.17491967
ECCENTRICITY   = .00052941
INCLINATION    = 82.5151
RA_OF_ASC_NODE = 298.9366
ARG_OF_PERICENTER = 30.2563
MEAN_ANOMALY   = 329.8975

EPHEMERIS_TYPE = 0
CLASSIFICATION_TYPE = U
NORAD_CAT_ID   = 18958
ELEMENT_SET_NO = 999
REV_AT_EPOCH   = 4286
BSTAR          = .26829082E-3
MEAN_MOTION_DOT = .5406E-4
MEAN_MOTION_DDOT = 0

CCSDS_OMM_VERS = 2.0
CREATION_DATE  = 
ORIGINATOR     = 

OBJECT_NAME    = SL-3 R/B
OBJECT_ID      = 1988-032B
CENTER_NAME    = EARTH
REF_FRAME      = TEME
TIME_SYSTEM    = UTC
MEAN_ELEMENT_THEORY = SGP/SGP4

EPOCH          = 2026-01-20T06:24:59.018400
MEAN_MOTION    = 15.19201253
ECCENTRICITY   = .00278876
INCLINATION    = 97.5121
RA_OF_ASC_NODE = 3.7415
ARG_OF_PERICENTER = 45.8435
MEAN_ANOMALY   = 314.5085

EPHEMERIS_TYPE = 0
CLASSIFICATION_TYPE = U
NORAD_CAT_ID   = 19046
ELEMENT_SET_NO = 999
REV_AT_EPOCH   = 4475
BSTAR          = .4204312E-3
MEAN_MOTION_DOT = .8873E-4
MEAN_MOTION_DDOT = 0

CCSDS_OMM_VERS = 2.0
CREATION_DATE  = 
ORIGINATOR     = 

OBJECT_NAME    = SL-16 R/B
OBJECT_ID      = 1988-039B
CENTER_NAME    = EARTH
REF_FRAME      = TEME
TIME_SYSTEM    = UTC
MEAN_ELEMENT_THEORY = SGP/SGP4

EPOCH          = 2026-01-20T03:35:22.263936
MEAN_MOTION    = 14.19607678
ECCENTRICITY   = .00200038
INCLINATION    = 71.0140
RA_OF_ASC_NODE = 171.1845
ARG_OF_PERICENTER = 50.5653
MEAN_ANOMALY   = 309.7238

EPHEMERIS_TYPE = 0
CLASSIFICATION_TYPE = U
NORAD_CAT_ID   = 19120
ELEMENT_SET_NO = 999
REV_AT_EPOCH   = 95149
BSTAR          = .96843054E-4
MEAN_MOTION_DOT = .157E-5
MEAN_MOTION_DDOT = 0

CCSDS_OMM_VERS = 2.0
CREATION_DATE  = 
ORIGINATOR     = 

OBJECT_NAME    = COSMOS 1953
OBJECT_ID      = 1988-050A
CENTER_NAME    = EARTH
REF_FRAME      = TEME
TIME_SYSTEM    = UTC
MEAN_ELEMENT_THEORY = SGP/SGP4

EPOCH          = 2026-01-20T05:32:55.242816
MEAN_MOTION    = 15.27454582
ECCENTRICITY   = .00105594
INCLINATION    = 82.5064
RA_OF_ASC_NODE = 206.9419
ARG_OF_PERICENTER = 298.5321
MEAN_ANOMALY   = 61.4855

EPHEMERIS_TYPE = 0
CLASSIFICATION_TYPE = U
NORAD_CAT_ID   = 19210
ELEMENT_SET_NO = 999
REV_AT_EPOCH   = 3038
BSTAR          = .43517626E-3
MEAN_MOTION_DOT = .11743E-3
MEAN_MOTION_DDOT = 0

CCSDS_OMM_VERS = 2.0
CREATION_DATE  = 
ORIGINATOR     = 

OBJECT_NAME    = SL-8 R/B
OBJECT_ID      = 1988-053B
CENTER_NAME    = EARTH
REF_FRAME      = TEME
TIME_SYSTEM    = UTC
MEAN_ELEMENT_THEORY = SGP/SGP4

EPOCH          = 2026-01-20T06:55:15.280320
MEAN_MOTION    = 14.38881918
ECCENTRICITY   = .0019557
INCLINATION    = 74.0456
RA_OF_ASC_NODE = 201.6725
ARG_OF_PERICENTER = 31.7616
MEAN_ANOMALY   = 141.5523

EPHEMERIS_TYPE = 0
CLASSIFICATION_TYPE = U
NORAD_CAT_ID   = 19257
ELEMENT_SET_NO = 999
REV_AT_EPOCH   = 96963
BSTAR          = .63674777E-4
MEAN_MOTION_DOT = .17E-5
MEAN_MOTION_DDOT = 0

CCSDS_OMM_VERS = 2.0
CREATION_DATE  = 
ORIGINATOR     = 

OBJECT_NAME    = COSMOS 1975
OBJECT_ID      = 1988-093A
CENTER_NAME    = EARTH
REF_FRAME      = TEME
TIME_SYSTEM    = UTC
MEAN_ELEMENT_THEORY = SGP/SGP4

EPOCH          = 2026-01-19T20:37:24.504096
MEAN_MOTION    = 15.27077327
ECCENTRICITY   = .00112824
INCLINATION    = 82.5214
RA_OF_ASC_NODE = 166.6501
ARG_OF_PERICENTER = 347.9368
MEAN_ANOMALY   = 12.1599

EPHEMERIS_TYPE = 0
CLASSIFICATION_TYPE = U
NORAD_CAT_ID   = 19573
ELEMENT_SET_NO = 999
REV_AT_EPOCH   = 1195
BSTAR          = .32936387E-3
MEAN_MOTION_DOT = .8795E-4
MEAN_MOTION_DDOT = 0

CCSDS_OMM_VERS = 2.0
CREATION_DATE  = 
ORIGINATOR     = 

OBJECT_NAME    = SL-14 R/B
OBJECT_ID      = 1988-093B
CENTER_NAME    = EARTH
REF_FRAME      = TEME
TIME_SYSTEM    = UTC
MEAN_ELEMENT_THEORY = SGP/SGP4

EPOCH          = 2026-01-20T07:17:45.477312
MEAN_MOTION    = 14.85597600
ECCENTRICITY   = .00203405
INCLINATION    = 82.5302
RA_OF_ASC_NODE = 87.4767
ARG_OF_PERICENTER = 194.2199
MEAN_ANOMALY   = 234.3822

EPHEMERIS_TYPE = 0
CLASSIFICATION_TYPE = U
NORAD_CAT_ID   = 19574
ELEMENT_SET_NO = 999
REV_AT_EPOCH   = 99385
BSTAR          = .74416587E-4
MEAN_MOTION_DOT = .67E-5
MEAN_MOTION_DDOT = 0

CCSDS_OMM_VERS = 2.0
CREATION_DATE  = 
ORIGINATOR     = 

OBJECT_NAME    = SL-16 R/B
OBJECT_ID      = 1988-102B
CENTER_NAME    = EARTH
REF_FRAME      = TEME
TIME_SYSTEM    = UTC
MEAN_ELEMENT_THEORY = SGP/SGP4

EPOCH          = 2026-01-20T02:18:21.531456
MEAN_MOTION    = 14.16146735
ECCENTRICITY   = .00119318
INCLINATION    = 70.9984
RA_OF_ASC_NODE = 253.7400
ARG_OF_PERICENTER = 83.8972
MEAN_ANOMALY   = 276.3510

EPHEMERIS_TYPE = 0
CLASSIFICATION_TYPE = U
NORAD_CAT_ID   = 19650
ELEMENT_SET_NO = 999
REV_AT_EPOCH   = 92001
BSTAR          = .1154657E-3
MEAN_MOTION_DOT = .181E-5
MEAN_MOTION_DDOT = 0

CCSDS_OMM_VERS = 2.0
CREATION_DATE  = 
ORIGINATOR     = 

OBJECT_NAME    = INTERCOSMOS 24
OBJECT_ID      = 1989-080A
CENTER_NAME    = EARTH
REF_FRAME      = TEME
TIME_SYSTEM    = UTC
MEAN_ELEMENT_THEORY = SGP/SGP4

EPOCH          = 2026-01-20T06:31:39.245664
MEAN_MOTION    = 12.59491508
ECCENTRICITY   = .11888938
INCLINATION    = 82.6079
RA_OF_ASC_NODE = 135.9058
ARG_OF_PERICENTER = 45.1848
MEAN_ANOMALY   = 323.9894

EPHEMERIS_TYPE = 0
CLASSIFICATION_TYPE = U
NORAD_CAT_ID   = 20261
ELEMENT_SET_NO = 999
REV_AT_EPOCH   = 66070
BSTAR          = .15241463E-3
MEAN_MOTION_DOT = .544E-5
MEAN_MOTION_DDOT = 0

CCSDS_OMM_VERS = 2.0
CREATION_DATE  = 
ORIGINATOR     = 

OBJECT_NAME    = SL-14 R/B
OBJECT_ID      = 1989-080C
CENTER_NAME    = EARTH
REF_FRAME      = TEME
TIME_SYSTEM    = UTC
MEAN_ELEMENT_THEORY = SGP/SGP4

EPOCH          = 2026-01-20T05:26:36.695040
MEAN_MOTION    = 12.50441542
ECCENTRICITY   = .12296386
INCLINATION    = 82.5917
RA_OF_ASC_NODE = 204.3045
ARG_OF_PERICENTER = 295.6059
MEAN_ANOMALY   = 52.3018

EPHEMERIS_TYPE = 0
CLASSIFICATION_TYPE = U
NORAD_CAT_ID   = 20262
ELEMENT_SET_NO = 999
REV_AT_EPOCH   = 65409
BSTAR          = .99425004E-4
MEAN_MOTION_DOT = .328E-5
MEAN_MOTION_DDOT = 0

CCSDS_OMM_VERS = 2.0
CREATION_DATE  = 
ORIGINATOR     = 

OBJECT_NAME    = DELTA 1 R/B
OBJECT_ID      = 1989-089B
CENTER_NAME    = EARTH
REF_FRAME      = TEME
TIME_SYSTEM    = UTC
MEAN_ELEMENT_THEORY = SGP/SGP4

EPOCH          = 2026-01-20T04:46:21.033120
MEAN_MOTION    = 14.50611481
ECCENTRICITY   = .00675485
INCLINATION    = 97.0735
RA_OF_ASC_NODE = 235.3386
ARG_OF_PERICENTER = 276.1511
MEAN_ANOMALY   = 83.1994

EPHEMERIS_TYPE = 0
CLASSIFICATION_TYPE = U
NORAD_CAT_ID   = 20323
ELEMENT_SET_NO = 999
REV_AT_EPOCH   = 88870
BSTAR          = .15575598E-3
MEAN_MOTION_DOT = .593E-5
MEAN_MOTION_DDOT = 0

CCSDS_OMM_VERS = 2.0
CREATION_DATE  = 
ORIGINATOR     = 

OBJECT_NAME    = ARIANE 40 R/B
OBJECT_ID      = 1990-005H
CENTER_NAME    = EARTH
REF_FRAME      = TEME
TIME_SYSTEM    = UTC
MEAN_ELEMENT_THEORY = SGP/SGP4

EPOCH          = 2026-01-20T04:03:41.345856
MEAN_MOTION    = 14.39829594
ECCENTRICITY   = .00098862
INCLINATION    = 98.3183
RA_OF_ASC_NODE = 82.2511
ARG_OF_PERICENTER = 357.3937
MEAN_ANOMALY   = 2.7199

EPHEMERIS_TYPE = 0
CLASSIFICATION_TYPE = U
NORAD_CAT_ID   = 20443
ELEMENT_SET_NO = 999
REV_AT_EPOCH   = 88582
BSTAR          = .12980114E-3
MEAN_MOTION_DOT = .365E-5
MEAN_MOTION_DDOT = 0

