COSMOS 1933             
1 18958U 88020A   26020.13489440  .00005406  00000+0  26829-3 0  9996
2 18958  82.5151 298.9366 0005294  30.2563 329.8975 15.17491967 42860
SL-3 R/B                
1 19046U 88032B   26020.26734975  .00008873  00000+0  42043-3 0  9995
2 19046  97.5121   3.7415 0027887  45.8435 314.5085 15.19201253 44753
SL-16 R/B               
1 19120U 88039B   26020.14956324  .00000157  00000+0  96843-4 0  9991
2 19120  71.0140 171.1845 0020003  50.5653 309.7238 14.19607678951493
COSMOS 1953             
1 19210U 88050A   26020.23119494  .00011743  00000+0  43518-3 0  9996
2 19210  82.5064 206.9419 0010559 298.5321  61.4855 15.27454582 30387
SL-8 R/B                
1 19257U 88053B   26020.28837130  .00000170  00000+0  63675-4 0  9998
2 19257  74.0456 201.6725 0019557  31.7616 141.5523 14.38881918969631
COSMOS 1975             
1 19573U 88093A   26019.85931139  .00008795  00000+0  32936-3 0  9994
2 19573  82.5214 166.6501 0011282 347.9368  12.1599 15.27077327 11952
SL-14 R/B               
1 19574U 88093B   26020.30399858  .00000670  00000+0  74417-4 0  9998
2 19574  82.5302  87.4767 0020340 194.2199 234.3822 14.85597600993854
SL-16 R/B               
1 19650U 88102B   26020.09608254  .00000181  00000+0  11547-3 0  9994
2 19650  70.9984 253.7400 0011931  83.8972 276.3510 14.16146735920017
INTERCOSMOS 24          
1 20261U 89080A   26020.27198201  .00000544  00000+0  15241-3 0  9994
2 20261  82.6079 135.9058 1188893  45.1848 323.9894 12.59491508660705
SL-14 R/B               
1 20262U 89080C   26020.22681360  .00000328  00000+0  99425-4 0  9990
2 20262  82.5917 204.3045 1229638 295.6059  52.3018 12.50441542654092
DELTA 1 R/B             
1 20323U 89089B   26020.19885455  .00000593  00000+0  15576-3 0  9992
2 20323  97.0735 235.3386 0067548 276.1511  83.1994 14.50611481888702
ARIANE 40 R/B           
1 20443U 90005H   26020.16922854  .00000365  00000+0  12980-3 0  9990
2 20443  98.3183  82.2511 0009886 357.3937   2.7199 14.39829594885827
